ONEWEB-0297             
1 49086U 21075M   26080.51543961 -.00000381  00000+0 -10942-2 0  9993
2 49086  87.9006   8.0885 0001743  74.8328 285.2994 13.12443754223689
ONEWEB-0298             
1 49087U 21075N   26080.56177198  .00000026  00000+0  33491-4 0  9994
2 49087  87.9168  23.2673 0001701  81.0161 279.1163 13.17648630222080
ONEWEB-0299             
1 49088U 21075P   26080.56331944  .00000018  00000+0  14106-4 0  9999
2 49088  87.9177  23.2390 0001764  75.0617 285.0710 13.17648839222068
ONEWEB-0300             
1 49089U 21075Q   26080.50780434 -.00000270  00000+0 -78569-3 0  9990
2 49089  87.9017   8.0594 0001498  85.9554 274.1746 13.12444059223706
ONEWEB-0301             
1 49090U 21075R   26080.49171223  .00000186  00000+0  48109-3 0  9991
2 49090  87.9012   8.0631 0001591  88.6244 271.5067 13.12440687223064
ONEWEB-0302             
1 49091U 21075S   26080.55440650  .00000539  00000+0  14630-2 0  9995
2 49091  87.9017   8.0596 0002046  71.4279 288.7072 13.12443981223059
ONEWEB-0304             
1 49092U 21075T   26080.53800598  .00000095  00000+0  21268-3 0  9998
2 49092  87.9173  23.2739 0001810  74.7430 285.3902 13.17651180222033
ONEWEB-0305             
1 49093U 21075U   26080.53126022  .00000076  00000+0  16346-3 0  9992
2 49093  87.9177  23.2540 0001645  67.6967 292.4338 13.17651323222064
ONEWEB-0308             
1 49094U 21075V   26080.54762914  .00000438  00000+0  11821-2 0  9994
2 49094  87.9017   8.0536 0001790  79.3038 280.8292 13.12444424223062
ONEWEB-0309             
1 49095U 21075W   26080.53463908  .00000099  00000+0  22145-3 0  9990
2 49095  87.9178  23.2681 0002191  71.8388 288.2982 13.17650059222034
ONEWEB-0310             
1 49096U 21075X   26080.48663339  .00000413  00000+0  11137-2 0  9993
2 49096  87.9007   8.0955 0001849  78.5444 281.5892 13.12441397223683
ONEWEB-0311             
1 49097U 21075Y   26080.38949917  .00000014  00000+0  33897-5 0  9999
2 49097  87.9180  23.2914 0001500  69.0001 291.1291 13.17652685222068
ONEWEB-0312             
1 49098U 21075Z   26080.55657652 -.00000005  00000+0 -45473-4 0  9995
2 49098  87.9168  23.2754 0001882  68.2941 291.8391 13.17648965222068
ONEWEB-0313             
1 49099U 21075AA  26080.56150421  .00000063  00000+0  12862-3 0  9996
2 49099  87.9171  23.2806 0001764  75.9597 284.1731 13.17650103222051
ONEWEB-0314             
1 49100U 21075AB  26080.52788572  .00000104  00000+0  23342-3 0  9990
2 49100  87.9178  23.2513 0001851  67.2478 292.8849 13.17650258222029
ONEWEB-0315             
1 49101U 21075AC  26080.15458342  .00000226  00000+0  59380-3 0  9995
2 49101  87.9016   8.1181 0001448  74.4857 285.6431 13.12444570223624
ONEWEB-0316             
1 49102U 21075AD  26080.21801191  .00000076  00000+0  15937-3 0  9990
2 49102  87.9242 352.9394 0001696  77.0855 283.0467 13.18686674225615
