[{"OBJECT_NAME":"ONEWEB-0297","OBJECT_ID":"2021-075M","EPOCH":"2026-03-21T12:22:13.982304","MEAN_MOTION":13.12443754,"ECCENTRICITY":0.00017432,"INCLINATION":87.9006,"RA_OF_ASC_NODE":8.0885,"ARG_OF_PERICENTER":74.8328,"MEAN_ANOMALY":285.2994,"EPHEMERIS_TYPE":0,"CLASSIFICATION_TYPE":"U","NORAD_CAT_ID":49086,"ELEMENT_SET_NO":999,"REV_AT_EPOCH":22368,"BSTAR":-0.0010941986,"MEAN_MOTION_DOT":-3.81e-6,"MEAN_MOTION_DDOT":0},{"OBJECT_NAME":"ONEWEB-0298","OBJECT_ID":"2021-075N","EPOCH":"2026-03-21T13:28:57.099072","MEAN_MOTION":13.1764863,"ECCENTRICITY":0.0001701,"INCLINATION":87.9168,"RA_OF_ASC_NODE":23.2673,"ARG_OF_PERICENTER":81.0161,"MEAN_ANOMALY":279.1163,"EPHEMERIS_TYPE":0,"CLASSIFICATION_TYPE":"U","NORAD_CAT_ID":49087,"ELEMENT_SET_NO":999,"REV_AT_EPOCH":22208,"BSTAR":3.349097e-5,"MEAN_MOTION_DOT":2.6e-7,"MEAN_MOTION_DDOT":0},{"OBJECT_NAME":"ONEWEB-0299","OBJECT_ID":"2021-075P","EPOCH":"2026-03-21T13:31:10.799616","MEAN_MOTION":13.17648839,"ECCENTRICITY":0.00017648,"INCLINATION":87.9177,"RA_OF_ASC_NODE":23.239,"ARG_OF_PERICENTER":75.0617,"MEAN_ANOMALY":285.071,"EPHEMERIS_TYPE":0,"CLASSIFICATION_TYPE":"U","NORAD_CAT_ID":49088,"ELEMENT_SET_NO":999,"REV_AT_EPOCH":22206,"BSTAR":1.4106228e-5,"MEAN_MOTION_DOT":1.8e-7,"MEAN_MOTION_DDOT":0},{"OBJECT_NAME":"ONEWEB-0300","OBJECT_ID":"2021-075Q","EPOCH":"2026-03-21T12:11:14.294976","MEAN_MOTION":13.12444059,"ECCENTRICITY":0.00014981,"INCLINATION":87.9017,"RA_OF_ASC_NODE":8.0594,"ARG_OF_PERICENTER":85.9554,"MEAN_ANOMALY":274.1746,"EPHEMERIS_TYPE":0,"CLASSIFICATION_TYPE":"U","NORAD_CAT_ID":49089,"ELEMENT_SET_NO":999,"REV_AT_EPOCH":22370,"BSTAR":-0.00078568772,"MEAN_MOTION_DOT":-2.7e-6,"MEAN_MOTION_DDOT":0},{"OBJECT_NAME":"ONEWEB-0301","OBJECT_ID":"2021-075R","EPOCH":"2026-03-21T11:48:03.936672","MEAN_MOTION":13.12440687,"ECCENTRICITY":0.0001591,"INCLINATION":87.9012,"RA_OF_ASC_NODE":8.0631,"ARG_OF_PERICENTER":88.6244,"MEAN_ANOMALY":271.5067,"EPHEMERIS_TYPE":0,"CLASSIFICATION_TYPE":"U","NORAD_CAT_ID":49090,"ELEMENT_SET_NO":999,"REV_AT_EPOCH":22306,"BSTAR":0.00048108574,"MEAN_MOTION_DOT":1.86e-6,"MEAN_MOTION_DDOT":0},{"OBJECT_NAME":"ONEWEB-0302","OBJECT_ID":"2021-075S","EPOCH":"2026-03-21T13:18:20.721600","MEAN_MOTION":13.12443981,"ECCENTRICITY":0.00020466,"INCLINATION":87.9017,"RA_OF_ASC_NODE":8.0596,"ARG_OF_PERICENTER":71.4279,"MEAN_ANOMALY":288.7072,"EPHEMERIS_TYPE":0,"CLASSIFICATION_TYPE":"U","NORAD_CAT_ID":49091,"ELEMENT_SET_NO":999,"REV_AT_EPOCH":22305,"BSTAR":0.001463038,"MEAN_MOTION_DOT":5.39e-6,"MEAN_MOTION_DDOT":0},{"OBJECT_NAME":"ONEWEB-0304","OBJECT_ID":"2021-075T","EPOCH":"2026-03-21T12:54:43.716672","MEAN_MOTION":13.1765118,"ECCENTRICITY":0.00018108,"INCLINATION":87.9173,"RA_OF_ASC_NODE":23.2739,"ARG_OF_PERICENTER":74.743,"MEAN_ANOMALY":285.3902,"EPHEMERIS_TYPE":0,"CLASSIFICATION_TYPE":"U","NORAD_CAT_ID":49092,"ELEMENT_SET_NO":999,"REV_AT_EPOCH":22203,"BSTAR":0.00021268077,"MEAN_MOTION_DOT":9.5e-7,"MEAN_MOTION_DDOT":0},{"OBJECT_NAME":"ONEWEB-0305","OBJECT_ID":"2021-075U","EPOCH":"2026-03-21T12:45:00.883008","MEAN_MOTION":13.17651323,"ECCENTRICITY":0.00016451,"INCLINATION":87.9177,"RA_OF_ASC_NODE":23.254,"ARG_OF_PERICENTER":67.6967,"MEAN_ANOMALY":292.4338,"EPHEMERIS_TYPE":0,"CLASSIFICATION_TYPE":"U","NORAD_CAT_ID":49093,"ELEMENT_SET_NO":999,"REV_AT_EPOCH":22206,"BSTAR":0.00016346254,"MEAN_MOTION_DOT":7.6e-7,"MEAN_MOTION_DDOT":0},{"OBJECT_NAME":"ONEWEB-0308","OBJECT_ID":"2021-075V","EPOCH":"2026-03-21T13:08:35.157696","MEAN_MOTION":13.12444424,"ECCENTRICITY":0.00017907,"INCLINATION":87.9017,"RA_OF_ASC_NODE":8.0536,"ARG_OF_PERICENTER":79.3038,"MEAN_ANOMALY":280.8292,"EPHEMERIS_TYPE":0,"CLASSIFICATION_TYPE":"U","NORAD_CAT_ID":49094,"ELEMENT_SET_NO":999,"REV_AT_EPOCH":22306,"BSTAR":0.0011821197,"MEAN_MOTION_DOT":4.38e-6,"MEAN_MOTION_DDOT":0},{"OBJECT_NAME":"ONEWEB-0309","OBJECT_ID":"2021-075W","EPOCH":"2026-03-21T12:49:52.816512","MEAN_MOTION":13.17650059,"ECCENTRICITY":0.00021913,"INCLINATION":87.9178,"RA_OF_ASC_NODE":23.2681,"ARG_OF_PERICENTER":71.8388,"MEAN_ANOMALY":288.2982,"EPHEMERIS_TYPE":0,"CLASSIFICATION_TYPE":"U","NORAD_CAT_ID":49095,"ELEMENT_SET_NO":999,"REV_AT_EPOCH":22203,"BSTAR":0.0002214498,"MEAN_MOTION_DOT":9.9e-7,"MEAN_MOTION_DDOT":0},{"OBJECT_NAME":"ONEWEB-0310","OBJECT_ID":"2021-075X","EPOCH":"2026-03-21T11:40:45.124896","MEAN_MOTION":13.12441397,"ECCENTRICITY":0.00018499,"INCLINATION":87.9007,"RA_OF_ASC_NODE":8.0955,"ARG_OF_PERICENTER":78.5444,"MEAN_ANOMALY":281.5892,"EPHEMERIS_TYPE":0,"CLASSIFICATION_TYPE":"U","NORAD_CAT_ID":49096,"ELEMENT_SET_NO":999,"REV_AT_EPOCH":22368,"BSTAR":0.0011136626,"MEAN_MOTION_DOT":4.13e-6,"MEAN_MOTION_DDOT":0},{"OBJECT_NAME":"ONEWEB-0311","OBJECT_ID":"2021-075Y","EPOCH":"2026-03-21T09:20:52.728288","MEAN_MOTION":13.17652685,"ECCENTRICITY":0.00015002,"INCLINATION":87.918,"RA_OF_ASC_NODE":23.2914,"ARG_OF_PERICENTER":69.0001,"MEAN_ANOMALY":291.1291,"EPHEMERIS_TYPE":0,"CLASSIFICATION_TYPE":"U","NORAD_CAT_ID":49097,"ELEMENT_SET_NO":999,"REV_AT_EPOCH":22206,"BSTAR":3.389676e-6,"MEAN_MOTION_DOT":1.4e-7,"MEAN_MOTION_DDOT":0},{"OBJECT_NAME":"ONEWEB-0312","OBJECT_ID":"2021-075Z","EPOCH":"2026-03-21T13:21:28.211328","MEAN_MOTION":13.17648965,"ECCENTRICITY":0.00018826,"INCLINATION":87.9168,"RA_OF_ASC_NODE":23.2754,"ARG_OF_PERICENTER":68.2941,"MEAN_ANOMALY":291.8391,"EPHEMERIS_TYPE":0,"CLASSIFICATION_TYPE":"U","NORAD_CAT_ID":49098,"ELEMENT_SET_NO":999,"REV_AT_EPOCH":22206,"BSTAR":-4.5473217e-5,"MEAN_MOTION_DOT":-5.0e-8,"MEAN_MOTION_DDOT":0},{"OBJECT_NAME":"ONEWEB-0313","OBJECT_ID":"2021-075AA","EPOCH":"2026-03-21T13:28:33.963744","MEAN_MOTION":13.17650103,"ECCENTRICITY":0.00017643,"INCLINATION":87.9171,"RA_OF_ASC_NODE":23.2806,"ARG_OF_PERICENTER":75.9597,"MEAN_ANOMALY":284.1731,"EPHEMERIS_TYPE":0,"CLASSIFICATION_TYPE":"U","NORAD_CAT_ID":49099,"ELEMENT_SET_NO":999,"REV_AT_EPOCH":22205,"BSTAR":0.00012862401,"MEAN_MOTION_DOT":6.3e-7,"MEAN_MOTION_DDOT":0},{"OBJECT_NAME":"ONEWEB-0314","OBJECT_ID":"2021-075AB","EPOCH":"2026-03-21T12:40:09.326208","MEAN_MOTION":13.17650258,"ECCENTRICITY":0.00018515,"INCLINATION":87.9178,"RA_OF_ASC_NODE":23.2513,"ARG_OF_PERICENTER":67.2478,"MEAN_ANOMALY":292.8849,"EPHEMERIS_TYPE":0,"CLASSIFICATION_TYPE":"U","NORAD_CAT_ID":49100,"ELEMENT_SET_NO":999,"REV_AT_EPOCH":22202,"BSTAR":0.00023342384,"MEAN_MOTION_DOT":1.04e-6,"MEAN_MOTION_DDOT":0},{"OBJECT_NAME":"ONEWEB-0315","OBJECT_ID":"2021-075AC","EPOCH":"2026-03-21T03:42:36.007488","MEAN_MOTION":13.1244457,"ECCENTRICITY":0.00014483,"INCLINATION":87.9016,"RA_OF_ASC_NODE":8.1181,"ARG_OF_PERICENTER":74.4857,"MEAN_ANOMALY":285.6431,"EPHEMERIS_TYPE":0,"CLASSIFICATION_TYPE":"U","NORAD_CAT_ID":49101,"ELEMENT_SET_NO":999,"REV_AT_EPOCH":22362,"BSTAR":0.00059379635,"MEAN_MOTION_DOT":2.26e-6,"MEAN_MOTION_DDOT":0},{"OBJECT_NAME":"ONEWEB-0316","OBJECT_ID":"2021-075AD","EPOCH":"2026-03-21T05:13:56.229024","MEAN_MOTION":13.18686674,"ECCENTRICITY":0.00016963,"INCLINATION":87.9242,"RA_OF_ASC_NODE":352.9394,"ARG_OF_PERICENTER":77.0855,"MEAN_ANOMALY":283.0467,"EPHEMERIS_TYPE":0,"CLASSIFICATION_TYPE":"U","NORAD_CAT_ID":49102,"ELEMENT_SET_NO":999,"REV_AT_EPOCH":22561,"BSTAR":0.0001593682,"MEAN_MOTION_DOT":7.6e-7,"MEAN_MOTION_DDOT":0}]
